#aV2023  4 26  0  0  0.00000000     288 DD+AD WGS84 FIT  NGA
## 2259 259200.00000000   300.00000000 60060 0.0000000000000
+   32     1  2  3  4  5  6  7  8  9 10 11 12 13 14 15 16 17
+         18 19 20 21 22 23 24 25 26 27 28 29 30 31 32  0  0
+          0  0  0  0  0  0  0  0  0  0  0  0  0  0  0  0  0
+          0  0  0  0  0  0  0  0  0  0  0  0  0  0  0  0  0
+          0  0  0  0  0  0  0  0  0  0  0  0  0  0  0  0  0
++         2  2  2  2  2  2  2  2  2  2  2  2  2  2  2  2  2
++         2  2  2  2  2  2  2  2  2  2  2  2  2  2  2  0  0
++         0  0  0  0  0  0  0  0  0  0  0  0  0  0  0  0  0
++         0  0  0  0  0  0  0  0  0  0  0  0  0  0  0  0  0
++         0  0  0  0  0  0  0  0  0  0  0  0  0  0  0  0  0
%c cc cc ccc ccc cccc cccc cccc cccc ccccc ccccc ccccc ccccc
%c cc cc ccc ccc cccc cccc cccc cccc ccccc ccccc ccccc ccccc
%f  0.0000000  0.000000000  0.00000000000  0.000000000000000
%f  0.0000000  0.000000000  0.00000000000  0.000000000000000
%i    0    0    0    0      0      0      0      0         0
%i    0    0    0    0      0      0      0      0         0
/*      NGA, ST. LOUIS,MO.                                  
/*   EPHEMERIS COMPUTED FROM 2 DAYS OF DATA                 
/*   EPOCHA v8 SMOOTHER                                     
/*   G2139 IERS2010 SATIGS SATAPC                           
*  2023  4 26  5  0  0.00000000
P  1 -13266.397308   9028.024385  20754.753894    190.148051                    
V  1  -1937.438517 -27074.467531  10715.916625     -0.031383                    
P  2   -230.637203 -26178.807870  -4913.794517   -602.361900                    
V  2   3284.771045   6457.998487 -30909.485826      0.037572                    
P  3 -23027.718678  12734.444401   2957.060846   -320.016146                    
V  3   1987.274810  -4113.445770  31931.792572      0.096488                    
P  4 -19079.935758   3932.069175 -18092.285588     26.043627                    
V  4 -19424.571475 -12317.861970  17685.055241      0.094111                    
P  5  20612.895648   -426.248518 -16982.817630   -124.842036                    
V  5 -16228.662654  13695.289297 -20128.913894     -0.014591                    
P  6   5366.685335  25169.395446  -6291.703635    587.763925                    
V  6  -1527.308896   8154.039791  31105.082060      0.006588                    
P  7  -7205.821127  22183.728002 -11783.214568    192.809641                    
V  7  -3975.253548 -15674.276292 -26568.729612     -0.088079                    
P  8 -24846.768518  -5137.474066   8435.911774   -119.532213                    
V  8  -8679.352982  -6688.579502 -29002.430064     -0.018335                    
P  9  -9434.110320  12402.840117 -21582.026566   -172.117057                    
V  9 -24467.714927 -12006.271126   3765.799155      0.080944                    
P 10   2178.833856 -17512.670784  19927.125169    -34.401158                    
V 10  21437.468994 -12839.537246 -14049.318593     -0.015762                    
P 11  12416.746422  15327.614887 -17795.157415   -175.212654                    
V 11  -1381.439579  22596.101572  18454.482217     -0.131066                    
P 12  24145.835384  -9599.507684   4988.067621   -368.513359                    
V 12  -4520.036139   5639.437593  31076.910005     -0.046618                    
P 13  22914.765698  13260.700152   3051.426557    511.195747                    
V 13   2000.569187   4256.945731 -31500.263547      0.054749                    
P 14  -5611.220202  18602.584126  18052.423446     36.788698                    
V 14 -20561.492423  10455.965356 -17316.746430      0.120724                    
P 15  25162.045061   2077.207705   8209.903114     34.000010                    
V 15   9363.966282   6682.112031 -28530.372032      0.034254                    
P 16 -18974.883962  -4383.368007 -18565.872766   -506.023335                    
V 16  19534.935250 -11760.558386 -17032.490690      0.029431                    
P 17   5190.091881  18072.979324  19146.087232    712.290382                    
V 17 -20807.247004 -10798.474611  16300.014586      0.016928                    
P 18   5316.088774 -24258.762327  -9205.870593   -240.389295                    
V 18   2752.490713  11620.280181 -29175.469953     -0.163317                    
P 19  14157.721155  18950.671999  12139.315811    308.675891                    
V 19 -14162.784161  -6907.141247  26512.732435      0.050898                    
P 20  14352.521405   7300.495378 -21059.667714    436.949509                    
V 20 -19176.961524  18878.635588  -6707.966192     -0.021143                    
P 21 -15671.383469   -981.503283  22042.844254    154.090749                    
V 21  -3897.468057 -26313.787784  -3202.426779     -0.001437                    
P 22 -16463.682007 -18481.935765  10298.664913    470.775945                    
V 22  11712.821327   4558.862209  27981.852306      0.066683                    
P 23  13710.352513 -19371.052835  11776.914779     19.496365                    
V 23  13505.430441  -6827.214943 -27107.242417      0.027649                    
P 24  15032.694149  -4613.836925  21022.969846   -165.990029                    
V 24   4548.398934  27293.252149   3108.728830     -0.143438                    
P 25  19400.538997 -17320.968243  -4944.743206    438.390307                    
V 25   6690.834561   -704.278846  30930.277274      0.027891                    
P 26  -8826.040260 -13169.237550 -21417.195548    241.455190                    
V 26  21721.165574 -16104.384975   1296.659137     -0.003450                    
P 27 -23193.138636 -13261.312805  -2206.895011     50.677098                    
V 27   3197.708238   -888.317450 -31474.671528     -0.083192                    
P 28  -5413.733063 -25647.905997  -4325.225031     70.586824                    
V 28   2211.120360  -5689.127171  31140.894599      0.051960                    
P 29  13490.585888  -8639.463401 -21257.169087   -597.059709                    
V 29  22661.786702  14309.909748   8506.431556     -0.015345                    
P 30    341.303636  26375.598160  -1269.796820   -520.492416                    
V 30  -3922.401520  -1571.399167 -31307.028260      0.019527                    
P 31  -9754.447873 -21035.406252 -12726.106029   -214.801118                    
V 31   2137.607878 -16146.557728  25829.630099     -0.008318                    
P 32  -9133.175569 -18111.125316  17429.026332   -461.209327                    
V 32  20174.696719   8173.789810  19068.535296     -0.097437                    
EOF
